# From MPEC 2023-KD6
230P/LINEAR,e,15.4681,106.9628,313.4897,3.453458,0.1535758,0.54567165,84.8573,09/23.0/2023,2000,g 13.0,4.0
# From MPEC 2022-K19
231P/LINEAR-NEAT,e,12.2809,132.9126,44.1589,4.051655,0.1208524,0.24145227,189.1662,09/23.0/2023,2000,g 14.5,2.0
# From MPC112394
232P/Hill,e,14.6443,56.0296,53.2089,4.473570,0.1041652,0.33523163,169.8568,09/23.0/2023,2000,g 11.5,4.0
# From MPEC 2021-N06
233P/La Sagra,e,11.2903,74.9207,26.9535,3.027842,0.1870700,0.41250891,203.1712,09/23.0/2023,2000,g 15.0,4.0
# From MPEC 2022-K19
234P/LINEAR,e,11.5355,179.5671,357.3934,3.795587,0.1332864,0.25668147,307.1502,09/23.0/2023,2000,g 12.0,4.0
# From MPC110497
235P/LINEAR,e,10.4403,201.9336,348.0733,3.499284,0.1505689,0.43468408,239.0673,09/23.0/2023,2000,g 12.0,4.0
# From MPEC 2023-J29
236P/LINEAR,e,16.3543,245.5690,119.3750,3.726933,0.1369862,0.50940042,291.5499,09/23.0/2023,2000,g 14.0,4.0
# From MPEC 2023-R20
237P/LINEAR,e,14.0167,245.3598,25.2666,3.510189,0.1498678,0.43390977,19.6791,09/23.0/2023,2000,g 14.5,2.0
# From MPEC 2022-YN2
238P/Read,e,1.2640,51.6273,324.2119,3.165412,0.1750083,0.25133063,83.0616,09/23.0/2023,2000,g 14.5,4.0
# From MPEC 2021-F20
239P/LINEAR,e,11.3067,255.9415,220.3449,4.466480,0.1044133,0.63073606,179.3280,09/23.0/2023,2000,g 17.5,2.0
# From MPEC 2023-CD7
240P/NEAT,e,23.5353,74.9133,351.9778,3.863047,0.1298103,0.45015475,253.6982,09/23.0/2023,2000,g 11.0,4.0
# From MPEC 2022-J42
241P/LINEAR,e,21.0969,305.4496,111.5082,4.923330,0.0902227,0.61047057,71.1772,09/23.0/2023,2000,g 13.5,4.0
# From MPEC 2023-R20
242P/Spahr,e,32.4888,180.3790,244.9952,5.519356,0.0760101,0.28056605,325.1499,09/23.0/2023,2000,g  8.0,4.0
# From MPEC 2022-K19
243P/NEAT,e,7.6430,87.5837,283.6981,3.829079,0.1315414,0.36065712,243.4457,09/23.0/2023,2000,g 12.5,4.0
# From MPEC 2023-J29
244P/Scotti,e,2.2592,354.0015,93.1936,4.898542,0.0909084,0.19961696,28.0948,09/23.0/2023,2000,g  9.0,4.0
# From MPEC 2022-CN4
245P/WISE,e,21.1817,316.6732,316.8140,4.048841,0.1209784,0.45581158,248.6475,09/23.0/2023,2000,g 14.0,4.0
# From MPEC 2023-R20
246P/NEAT,e,16.3027,76.6749,179.5961,4.051287,0.1208689,0.29033556,113.0257,09/23.0/2023,2000,g 10.5,4.0
# From MPEC 2021-F20
247P/LINEAR,e,13.6599,54.0350,47.4015,3.966535,0.1247634,0.62505462,219.1113,09/23.0/2023,2000,g 16.5,2.0
# From MPC 75730
248P/Gibbs,e,6.3513,207.8140,209.9005,5.987859,0.0672662,0.63931502,311.3769,09/23.0/2023,2000,g 14.0,4.0
# From MPEC 2022-YN2
249P/LINEAR,e,8.3855,239.0527,65.7562,2.764026,0.2144820,0.81948688,253.2590,09/23.0/2023,2000,g 15.5,4.0
# From MPC110497
250P/Larson,e,13.1509,73.3276,46.0097,3.771699,0.1345546,0.39874312,278.9251,09/23.0/2023,2000,g 14.5,4.0
# From MPC104795
251P/LINEAR,e,23.3869,219.3417,31.2316,3.513796,0.1496371,0.50446832,338.5651,09/23.0/2023,2000,g 16.5,2.0
# From MPEC 2021-S45
252P/LINEAR,e,10.4145,190.9107,343.3966,3.051270,0.1849197,0.67085945,148.7442,09/23.0/2023,2000,g 17.5,4.0
# From MPEC 2020-FB5
253P/PANSTARRS,e,4.9436,146.8704,230.7700,3.463178,0.1529297,0.41462938,299.7625,09/23.0/2023,2000,g 14.5,4.0
# From MPEC 2023-FK0
254P/McNaught,e,32.5576,129.1879,219.7138,4.617313,0.0993391,0.31939245,108.0494,09/23.0/2023,2000,g 11.0,4.0
# From MPEC 2021-UA9
255P/Levy,e,13.4142,275.6517,186.0134,2.942131,0.1953040,0.71164979,74.3460,09/23.0/2023,2000,g 14.1,4.0
# From MPEC 2023-O39
256P/LINEAR,e,27.6216,81.3272,124.1755,4.638788,0.0986500,0.41790940,19.2208,09/23.0/2023,2000,g 14.0,2.0
# From MPEC 2023-A50
257P/Catalina,e,20.2199,207.7117,117.7870,3.765352,0.1348950,0.42962783,149.4236,09/23.0/2023,2000,g 11.5,4.0
# From MPEC 2021-U31
258P/PANSTARRS,e,6.7483,126.2328,25.6612,4.392384,0.1070665,0.20866333,127.7251,09/23.0/2023,2000,g 13.0,4.0
# From MPC106349
259P/Garradd,e,15.8974,51.4323,257.5002,2.728788,0.2186500,0.33887137,129.4269,09/23.0/2023,2000,g 15.5,4.0
# From MPEC 2022-O01
260P/McNaught,e,15.0514,349.3286,18.4710,3.623330,0.1429033,0.60928025,210.4651,09/23.0/2023,2000,g 13.5,4.0
# From MPEC 2021-J28
261P/Larson,e,6.0718,291.0830,67.3181,3.490398,0.1511443,0.42322577,235.1499,09/23.0/2023,2000,g 14.0,4.0
# From MPC 82322
262P/McNaught-Russell,e,29.3026,217.8618,171.0765,6.870524,0.0547292,0.81638170,215.6540,09/23.0/2023,2000,g 13.5,4.0
# From MPEC 2023-O39
263P/Gibbs,e,11.5223,105.5038,35.0425,3.041638,0.1857988,0.59358944,43.7399,09/23.0/2023,2000,g 18.0,4.0
# From MPC114608
264P/Larsen,e,26.3699,219.6458,345.6113,3.903716,0.1277870,0.37043696,197.6070,09/23.0/2023,2000,g 13.0,4.0
# From MPC 79870
265P/LINEAR,e,14.3569,342.9246,33.5178,4.257920,0.1121781,0.64752244,107.2125,09/23.0/2023,2000,g 14.5,4.0
# From MPEC 2021-F20
266P/Christensen,e,3.4270,4.9796,97.6737,3.530364,0.1485850,0.34031697,185.9175,09/23.0/2023,2000,g 14.7,4.0
# From MPC114608
267P/LONEOS,e,6.1448,228.5644,114.2591,3.209717,0.1713973,0.61429535,323.1843,09/23.0/2023,2000,g 19.5,4.0
# From MPC 92277
268P/Bernardi,e,15.6497,125.8873,359.8653,4.599771,0.0999079,0.47625904,314.8005,09/23.0/2023,2000,g 14.0,4.0
# From MPEC 2023-J29
269P/Jedicke,e,7.0836,241.7649,225.6607,7.064989,0.0524852,0.43229440,172.0412,09/23.0/2023,2000,g 10.0,4.0
# From MPC 88332
270P/Gehrels,e,2.9254,223.0537,209.7788,6.655405,0.0574040,0.46963087,215.3941,09/23.0/2023,2000,g  8.0,4.0
# From MPC 92277
271P/van Houten-Lemmon,e,6.8708,9.3073,36.4793,7.033898,0.0528336,0.39608888,196.2676,09/23.0/2023,2000,g 11.0,4.0
# From MPEC 2023-D41
272P/NEAT,e,18.0739,109.4537,27.8854,4.461698,0.1045813,0.45499454,45.2821,09/23.0/2023,2000,g 16.0,2.0
# From MPC 82723
273P/Pons-Gambart,e,136.5815,320.3855,20.2593,31.99712,0.0054455,0.97448772,0.0000,12/22.8912/2012,2000,g 11.5,4.0
# From MPEC 2023-M14
274P/Tombaugh-Tenagra,e,15.8175,81.3217,38.4687,4.377573,0.1076103,0.43976537,57.3020,09/23.0/2023,2000,g 13.9,4.0
# From MPC 81862
275P/Hermann,e,21.2601,348.7439,173.9083,5.784863,0.0708377,0.71316238,279.8103,09/23.0/2023,2000,g 17.0,4.0
# From MPEC 2023-R20
276P/Vorobjov,e,14.8125,211.3399,199.4053,5.330509,0.0800850,0.26865711,324.2848,09/23.0/2023,2000,g 11.5,4.0
# From MPEC 2021-F20
277P/LINEAR,e,16.7835,276.2835,152.3618,3.853437,0.1302962,0.50635977,129.8154,09/23.0/2023,2000,g 15.1,4.0
# From MPEC 2021-S45
278P/McNaught,e,6.6899,15.3343,237.4806,3.676781,0.1397985,0.43833326,154.6178,09/23.0/2023,2000,g 14.0,4.0
# From MPEC 2022-K19
279P/LaSagra,e,5.0498,346.2134,5.8385,3.576268,0.1457334,0.39941309,22.8086,09/23.0/2023,2000,g 14.0,4.0
# From MPEC 2023-J95
280P/Larsen,e,11.7722,131.3795,104.7366,4.529026,0.1022579,0.41705817,5.0407,09/23.0/2023,2000,g 12.5,4.0
# From MPEC 2023-D41
281P/MOSS,e,4.7178,87.1742,26.6831,4.880171,0.0914222,0.17328214,21.3264,09/23.0/2023,2000,g 11.0,4.0
# From MPC133426
282P/,e,5.8119,9.2937,217.6025,4.237587,0.1129864,0.18783081,78.9490,09/23.0/2023,2000,g 13.5,2.0
# From MPEC 2022-K19
283P/Spacewatch,e,14.4569,161.1244,22.1940,4.134345,0.1172449,0.48435269,87.3791,09/23.0/2023,2000,g 16.0,2.0
# From MPEC 2023-D41
284P/McNaught,e,11.8596,144.2668,202.4591,3.676857,0.1397942,0.37513834,103.5183,09/23.0/2023,2000,g 13.0,4.0
# From MPEC 2023-B57
285P/LINEAR,e,25.0374,185.5030,178.3926,4.507313,0.1029977,0.61859159,26.1400,09/23.0/2023,2000,g 15.0,4.0
# From MPEC 2022-X67
286P/Christensen,e,17.0610,283.7435,24.8677,4.110001,0.1182881,0.42653627,58.9871,09/23.0/2023,2000,g 14.0,4.0
# From MPEC 2023-R20
287P/Christensen,e,16.3205,139.0418,189.1750,4.164756,0.1159631,0.27145919,9.1253,09/23.0/2023,2000,g 13.5,4.0
# From MPC133426
288P/,e,3.2383,83.1221,280.2360,3.048467,0.1851748,0.20037259,105.6117,09/23.0/2023,2000,g 16.0,2.0
# From MPEC 2023-HD1
289P/Blanpain,e,5.9001,68.8914,9.8457,3.044951,0.1854956,0.68627875,254.3855,09/23.0/2023,2000,g 19.7,4.0
# From MPC 95214
290P/Jager,e,20.0237,302.6605,181.8342,6.217661,0.0635717,0.62734751,224.5390,09/23.0/2023,2000,g 10.5,4.0
# From MPEC 2023-J29
291P/NEAT,e,6.3097,237.6592,173.5083,4.535169,0.1020502,0.43436882,14.4863,09/23.0/2023,2000,g 13.0,4.0
# From MPEC 2022-K19
292P/Li,e,24.3061,90.9089,319.5779,6.099973,0.0654203,0.58990899,229.9722,09/23.0/2023,2000,g 12.5,4.0
# From MPEC 2022-L66
293P/Spacewatch,e,9.0618,78.4014,40.9181,3.639854,0.1419313,0.41876269,143.0208,09/23.0/2023,2000,g 14.5,4.0
# From MPEC 2020-SI8
294P/LINEAR,e,17.7361,310.2858,237.0633,3.188607,0.1731022,0.60290814,240.9947,09/23.0/2023,2000,g 15.5,4.0
# From MPEC 2022-K19
295P/LINEAR,e,21.0752,7.4231,72.9222,5.303729,0.0806923,0.61738442,276.5779,09/23.0/2023,2000,g 12.0,4.0
# From MPEC 2021-N06
296P/Garradd,e,25.2706,263.5312,349.9403,3.490123,0.1511621,0.47936092,166.3849,09/23.0/2023,2000,g 14.0,4.0
# From MPC102956
297P/Beshore,e,10.4424,94.2274,137.9798,3.480886,0.1517642,0.31972578,146.2961,09/23.0/2023,2000,g 15.0,4.0
# From MPC114609
298P/Christensen,e,7.8706,52.8145,100.6003,3.589715,0.1449152,0.38626871,161.1991,09/23.0/2023,2000,g 15.0,4.0
# From MPEC 2023-OA6
299P/Catalina-PANSTARRS,e,10.4672,271.5892,323.7217,4.389075,0.1071876,0.28090339,336.3593,09/23.0/2023,2000,g 11.5,4.0
# From MPEC 2023-J95
300P/Catalina,e,5.6746,95.6173,222.9518,2.698727,0.2223134,0.69172703,36.6560,09/23.0/2023,2000,g 16.0,4.0
# From MPC 89014
301P/LINEAR-NEAT,e,10.3327,351.1526,193.4916,5.743465,0.0716050,0.58565016,238.2024,09/23.0/2023,2000,g 13.0,4.0
# From MPEC 2023-N01
302P/Lemmon-PANSTARRS,e,6.0339,121.7214,208.5606,4.271556,0.1116413,0.23008204,300.4960,09/23.0/2023,2000,g 12.5,4.0
# From MPC 92278
303P/NEAT,e,7.0182,347.9538,357.0214,5.042445,0.0870447,0.51076650,283.3505,09/23.0/2023,2000,g 13.5,4.0
# From MPEC 2022-K19
304P/Ory,e,2.6075,58.9070,335.2811,3.150536,0.1762493,0.60102585,200.1670,09/23.0/2023,2000,g 16.5,4.0
# From MPC101100
305P/Skiff,e,11.6708,240.1055,147.3960,4.638003,0.0986751,0.69403008,318.4483,09/23.0/2023,2000,g 18.0,4.0
# From MPC 92278
306P/LINEAR,e,8.3059,341.3686,0.8987,3.124301,0.1784740,0.59295307,238.9149,09/23.0/2023,2000,g 19.0,4.0
# From MPC 92278
307P/LINEAR,e,4.4345,158.1501,222.2015,5.788581,0.0707695,0.67558528,225.8530,09/23.0/2023,2000,g 15.0,4.0
# From MPEC 2022-C56
